GLOBALSTAR M063         
1 26081U 00008A   25253.71503782 -.00000083  00000+0 -35911-5 0  9991
2 26081  51.9928 246.3228 0004563 119.3249  52.0634 11.86175915167724
GLOBALSTAR M062         
1 26082U 00008B   25253.79830462 -.00000080  00000+0  13089-3 0  9994
2 26082  51.9833 204.0244 0007048 297.8861  73.6062 12.43471743507276
GLOBALSTAR M060         
1 26083U 00008C   25253.83846475 -.00000112  00000+0 -21000-3 0  9990
2 26083  52.0013 176.0318 0003292 308.6380  90.3075 12.17665678162802
GLOBALSTAR M064         
1 26084U 00008D   25253.67265159 -.00000054  00000+0  42025-3 0  9991
2 26084  52.0063 344.2552 0001430 199.9001 160.1776 11.88535875177262
GLOBALSTAR M065         
1 31571U 07020A   25253.78352295 -.00000092  00000+0  64149-4 0  9993
2 31571  51.9915 325.7402 0010556 136.8277  23.0265 12.62010443844213
GLOBALSTAR M069         
1 31573U 07020C   25253.21029130 -.00000068  00000+0  22308-3 0  9995
2 31573  52.0056 324.5674 0001188 290.7676 105.4563 12.23461822844534
GLOBALSTAR M072         
1 31574U 07020D   25253.82215345 -.00000061  00000+0  31665-3 0  9997
2 31574  51.9918 123.9896 0001586 103.3382 336.6567 11.91651623841670
GLOBALSTAR M071         
1 31576U 07020F   25253.52784581 -.00000131  00000+0 -39672-3 0  9994
2 31576  52.0094 351.6920 0000272 244.4097 128.3043 12.18257637505341
